start=new Date('2022-12-17T00:00:00.000Z').valueOf();
sats=[{"MEAN_MOTION_DDOT":"0.0000000000000","ELEMENT_SET_NO":"999","CLASSIFICATION_TYPE":"U","RA_OF_ASC_NODE":"318.4442","OBJECT_NAME":"STARLINK-4518","ARG_OF_PERICENTER":"44.8520","TLE_LINE2":"2 53550  53.2204 318.4442 0002082  44.8520 315.2640 15.08841717 18267","GP_ID":"220599632","OBJECT_ID":"2022-101Z","CENTER_NAME":"EARTH","REV_AT_EPOCH":"1826","REF_FRAME":"TEME","FILE":"3703298","PERIAPSIS":"538.300","EPHEMERIS_TYPE":"0","OBJECT_TYPE":"PAYLOAD","MEAN_MOTION_DOT":"0.00001375","SEMIMAJOR_AXIS":"6917.875","COUNTRY_CODE":"US","MEAN_MOTION":"15.08841717","RCS_SIZE":"LARGE","SITE":"AFETR","NORAD_CAT_ID":"53550","MEAN_ANOMALY":"315.2640","TIME_SYSTEM":"UTC","EPOCH":"2022-12-16T08:03:06.806880","DECAY_DATE":null,"PERIOD":"95.437","TLE_LINE1":"1 53550U 22101Z   22350.33549545  .00001375  00000-0  10448-3 0  9990","ECCENTRICITY":"0.00020820","BSTAR":"0.00010448000000","APOAPSIS":"541.180","MEAN_ELEMENT_THEORY":"SGP4","LAUNCH_DATE":"2022-08-19","INCLINATION":"53.2204"},{"CENTER_NAME":"EARTH","REV_AT_EPOCH":"1896","TLE_LINE2":"2 53551  53.2174 317.2186 0001695  48.8727 311.2412 15.08848092 18961","OBJECT_ID":"2022-101AA","GP_ID":"220666273","OBJECT_NAME":"STARLINK-4514","ARG_OF_PERICENTER":"48.8727","RA_OF_ASC_NODE":"317.2186","ELEMENT_SET_NO":"999","MEAN_MOTION_DDOT":"0.0000000000000","CLASSIFICATION_TYPE":"U","OBJECT_TYPE":"PAYLOAD","MEAN_MOTION_DOT":"-0.00000571","SEMIMAJOR_AXIS":"6917.856","EPHEMERIS_TYPE":"0","PERIAPSIS":"538.548","FILE":"3705029","REF_FRAME":"TEME","EPOCH":"2022-12-16T14:35:14.199072","RCS_SIZE":"LARGE","MEAN_ANOMALY":"311.2412","SITE":"AFETR","NORAD_CAT_ID":"53551","TIME_SYSTEM":"UTC","MEAN_MOTION":"15.08848092","COUNTRY_CODE":"US","INCLINATION":"53.2174","LAUNCH_DATE":"2022-08-19","MEAN_ELEMENT_THEORY":"SGP4","APOAPSIS":"540.893","ECCENTRICITY":"0.00016950","BSTAR":"-0.00001780300000","TLE_LINE1":"1 53551U 22101AA  22350.60780323 -.00000571  00000-0 -17803-4 0  9994","PERIOD":"95.437","DECAY_DATE":null},{"SEMIMAJOR_AXIS":"6917.861","OBJECT_TYPE":"PAYLOAD","MEAN_MOTION_DOT":"0.00000805","EPHEMERIS_TYPE":"0","PERIAPSIS":"538.317","FILE":"3702730","REF_FRAME":"TEME","REV_AT_EPOCH":"1891","CENTER_NAME":"EARTH","OBJECT_ID":"2022-101AB","GP_ID":"220586276","TLE_LINE2":"2 53552  53.2199 318.4775 0002036  41.6537 318.4610 15.08846379 18916","ARG_OF_PERICENTER":"41.6537","OBJECT_NAME":"STARLINK-4495","RA_OF_ASC_NODE":"318.4775","CLASSIFICATION_TYPE":"U","MEAN_MOTION_DDOT":"0.0000000000000","ELEMENT_SET_NO":"999","INCLINATION":"53.2199","LAUNCH_DATE":"2022-08-19","MEAN_ELEMENT_THEORY":"SGP4","APOAPSIS":"541.134","BSTAR":"0.00006867900000","ECCENTRICITY":"0.00020360","TLE_LINE1":"1 53552U 22101AB  22350.32812814  .00000805  00000-0  68679-4 0  9990","PERIOD":"95.437","DECAY_DATE":null,"EPOCH":"2022-12-16T07:52:30.271296","NORAD_CAT_ID":"53552","SITE":"AFETR","MEAN_ANOMALY":"318.4610","TIME_SYSTEM":"UTC","RCS_SIZE":"LARGE","MEAN_MOTION":"15.08846379","COUNTRY_CODE":"US"},{"INCLINATION":"53.2195","MEAN_ELEMENT_THEORY":"SGP4","LAUNCH_DATE":"2022-08-19","APOAPSIS":"540.982","ECCENTRICITY":"0.00018140","BSTAR":"0.00004819200000","TLE_LINE1":"1 53553U 22101AC  22350.33276968  .00000479  00000-0  48192-4 0  9991","PERIOD":"95.437","DECAY_DATE":null,"EPOCH":"2022-12-16T07:59:11.300352","RCS_SIZE":"LARGE","SITE":"AFETR","NORAD_CAT_ID":"53553","TIME_SYSTEM":"UTC","MEAN_ANOMALY":"301.3833","MEAN_MOTION":"15.08845925","COUNTRY_CODE":"US","OBJECT_TYPE":"PAYLOAD","MEAN_MOTION_DOT":"0.00000479","SEMIMAJOR_AXIS":"6917.862","EPHEMERIS_TYPE":"0","PERIAPSIS":"538.472","FILE":"3703276","REF_FRAME":"TEME","CENTER_NAME":"EARTH","REV_AT_EPOCH":"1826","TLE_LINE2":"2 53553  53.2195 318.4490 0001814  58.7337 301.3833 15.08845925 18269","GP_ID":"220599633","OBJECT_ID":"2022-101AC","OBJECT_NAME":"STARLINK-4501","ARG_OF_PERICENTER":"58.7337","RA_OF_ASC_NODE":"318.4490","ELEMENT_SET_NO":"999","MEAN_MOTION_DDOT":"0.0000000000000","CLASSIFICATION_TYPE":"U"},{"OBJECT_NAME":"STARLINK-4506","ARG_OF_PERICENTER":"46.2410","REV_AT_EPOCH":"1831","CENTER_NAME":"EARTH","GP_ID":"220665659","OBJECT_ID":"2022-101AD","TLE_LINE2":"2 53554  53.2193 317.0276 0002057  46.2410 313.8752 15.08844890 18313","CLASSIFICATION_TYPE":"U","ELEMENT_SET_NO":"999","MEAN_MOTION_DDOT":"0.0000000000000","RA_OF_ASC_NODE":"317.0276","EPHEMERIS_TYPE":"0","SEMIMAJOR_AXIS":"6917.865","OBJECT_TYPE":"PAYLOAD","MEAN_MOTION_DOT":"0.00001061","FILE":"3705029","REF_FRAME":"TEME","PERIAPSIS":"538.307","EPOCH":"2022-12-16T15:38:50.357472","SITE":"AFETR","NORAD_CAT_ID":"53554","MEAN_ANOMALY":"313.8752","TIME_SYSTEM":"UTC","RCS_SIZE":"LARGE","COUNTRY_CODE":"US","MEAN_MOTION":"15.08844890","MEAN_ELEMENT_THEORY":"SGP4","LAUNCH_DATE":"2022-08-19","APOAPSIS":"541.153","INCLINATION":"53.2193","PERIOD":"95.437","DECAY_DATE":null,"BSTAR":"0.00008473600000","ECCENTRICITY":"0.00020570","TLE_LINE1":"1 53554U 22101AD  22350.65197173  .00001061  00000-0  84736-4 0  9999"},{"EPOCH":"2022-12-16T07:57:48.896352","RCS_SIZE":"LARGE","NORAD_CAT_ID":"53555","SITE":"AFETR","MEAN_ANOMALY":"312.3197","TIME_SYSTEM":"UTC","MEAN_MOTION":"15.08840170","COUNTRY_CODE":"US","INCLINATION":"53.2193","MEAN_ELEMENT_THEORY":"SGP4","LAUNCH_DATE":"2022-08-19","APOAPSIS":"541.059","ECCENTRICITY":"0.00018990","BSTAR":"-0.00001589100000","TLE_LINE1":"1 53555U 22101AE  22350.33181593 -.00000541  00000-0 -15891-4 0  9994","PERIOD":"95.438","DECAY_DATE":null,"CENTER_NAME":"EARTH","REV_AT_EPOCH":"1826","TLE_LINE2":"2 53555  53.2193 318.4550 0001899  47.7956 312.3197 15.08840170 18266","OBJECT_ID":"2022-101AE","GP_ID":"220599638","ARG_OF_PERICENTER":"47.7956","OBJECT_NAME":"STARLINK-4504","RA_OF_ASC_NODE":"318.4550","MEAN_MOTION_DDOT":"0.0000000000000","ELEMENT_SET_NO":"999","CLASSIFICATION_TYPE":"U","OBJECT_TYPE":"PAYLOAD","MEAN_MOTION_DOT":"-0.00000541","SEMIMAJOR_AXIS":"6917.880","EPHEMERIS_TYPE":"0","PERIAPSIS":"538.431","FILE":"3703276","REF_FRAME":"TEME"},{"SEMIMAJOR_AXIS":"6917.894","MEAN_MOTION_DOT":"-0.00000526","OBJECT_TYPE":"PAYLOAD","EPHEMERIS_TYPE":"0","PERIAPSIS":"538.269","REF_FRAME":"TEME","FILE":"3705029","GP_ID":"220666469","OBJECT_ID":"2022-101AF","TLE_LINE2":"2 53556  53.2205 317.0614 0002153  44.4702 315.6463 15.08835684 18316","REV_AT_EPOCH":"1831","CENTER_NAME":"EARTH","OBJECT_NAME":"STARLINK-4505","ARG_OF_PERICENTER":"44.4702","RA_OF_ASC_NODE":"317.0614","CLASSIFICATION_TYPE":"U","MEAN_MOTION_DDOT":"0.0000000000000","ELEMENT_SET_NO":"999","INCLINATION":"53.2205","APOAPSIS":"541.248","MEAN_ELEMENT_THEORY":"SGP4","LAUNCH_DATE":"2022-08-19","TLE_LINE1":"1 53556U 22101AF  22350.64462032 -.00000526  00000-0 -14948-4 0  9994","BSTAR":"-0.00001494800000","ECCENTRICITY":"0.00021530","DECAY_DATE":null,"PERIOD":"95.438","NORAD_CAT_ID":"53556","SITE":"AFETR","MEAN_ANOMALY":"315.6463","TIME_SYSTEM":"UTC","RCS_SIZE":"LARGE","EPOCH":"2022-12-16T15:28:15.195648","MEAN_MOTION":"15.08835684","COUNTRY_CODE":"US"},{"INCLINATION":"53.2201","MEAN_ELEMENT_THEORY":"SGP4","LAUNCH_DATE":"2022-08-19","APOAPSIS":"541.268","BSTAR":"0.00026715000000","ECCENTRICITY":"0.00022560","TLE_LINE1":"1 53557U 22101AG  22350.32444954  .00003968  00000-0  26715-3 0  9998","PERIOD":"95.437","DECAY_DATE":null,"EPOCH":"2022-12-16T07:47:12.440256","SITE":"AFETR","MEAN_ANOMALY":"328.6847","NORAD_CAT_ID":"53557","TIME_SYSTEM":"UTC","RCS_SIZE":"LARGE","MEAN_MOTION":"15.08852582","COUNTRY_CODE":"US","SEMIMAJOR_AXIS":"6917.842","OBJECT_TYPE":"PAYLOAD","MEAN_MOTION_DOT":"0.00003968","EPHEMERIS_TYPE":"0","PERIAPSIS":"538.146","FILE":"3702730","REF_FRAME":"TEME","REV_AT_EPOCH":"1891","CENTER_NAME":"EARTH","OBJECT_ID":"2022-101AG","GP_ID":"220586897","TLE_LINE2":"2 53557  53.2201 318.4953 0002256  31.4280 328.6847 15.08852582 18917","ARG_OF_PERICENTER":"31.4280","OBJECT_NAME":"STARLINK-4502","RA_OF_ASC_NODE":"318.4953","CLASSIFICATION_TYPE":"U","ELEMENT_SET_NO":"999","MEAN_MOTION_DDOT":"0.0000000000000"},{"TLE_LINE2":"2 53558  53.2170 313.2737 0001584  58.8231 301.2917 15.08836328 18991","OBJECT_ID":"2022-101AH","GP_ID":"220586687","CENTER_NAME":"EARTH","REV_AT_EPOCH":"1899","ARG_OF_PERICENTER":"58.8231","OBJECT_NAME":"STARLINK-4494","RA_OF_ASC_NODE":"313.2737","MEAN_MOTION_DDOT":"0.0000000000000","ELEMENT_SET_NO":"999","CLASSIFICATION_TYPE":"U","OBJECT_TYPE":"PAYLOAD","MEAN_MOTION_DOT":"0.00000202","SEMIMAJOR_AXIS":"6917.892","EPHEMERIS_TYPE":"0","PERIAPSIS":"538.661","REF_FRAME":"TEME","FILE":"3702730","RCS_SIZE":"LARGE","SITE":"AFETR","NORAD_CAT_ID":"53558","MEAN_ANOMALY":"301.2917","TIME_SYSTEM":"UTC","EPOCH":"2022-12-16T07:41:15.679968","MEAN_MOTION":"15.08836328","COUNTRY_CODE":"US","INCLINATION":"53.2170","APOAPSIS":"540.852","LAUNCH_DATE":"2022-08-19","MEAN_ELEMENT_THEORY":"SGP4","TLE_LINE1":"1 53558U 22101AH  22350.32032037  .00000202  00000-0  30820-4 0  9995","ECCENTRICITY":"0.00015840","BSTAR":"0.00003082000000","DECAY_DATE":null,"PERIOD":"95.438"},{"FILE":"3705029","REF_FRAME":"TEME","PERIAPSIS":"538.426","EPHEMERIS_TYPE":"0","SEMIMAJOR_AXIS":"6917.847","MEAN_MOTION_DOT":"0.00003369","OBJECT_TYPE":"PAYLOAD","CLASSIFICATION_TYPE":"U","MEAN_MOTION_DDOT":"0.0000000000000","ELEMENT_SET_NO":"999","RA_OF_ASC_NODE":"317.0443","OBJECT_NAME":"STARLINK-4508","ARG_OF_PERICENTER":"42.0969","REV_AT_EPOCH":"1831","CENTER_NAME":"EARTH","GP_ID":"220666274","OBJECT_ID":"2022-101AJ","TLE_LINE2":"2 53559  53.2180 317.0443 0001859  42.0969 318.0166 15.08850898 18313","PERIOD":"95.437","DECAY_DATE":null,"BSTAR":"0.00022959000000","ECCENTRICITY":"0.00018590","TLE_LINE1":"1 53559U 22101AJ  22350.64829326  .00003369  00000-0  22959-3 0  9996","MEAN_ELEMENT_THEORY":"SGP4","LAUNCH_DATE":"2022-08-19","APOAPSIS":"540.998","INCLINATION":"53.2180","COUNTRY_CODE":"US","MEAN_MOTION":"15.08850898","EPOCH":"2022-12-16T15:33:32.537664","SITE":"AFETR","NORAD_CAT_ID":"53559","MEAN_ANOMALY":"318.0166","TIME_SYSTEM":"UTC","RCS_SIZE":"MEDIUM"}];
